H1 CPF  2  SGF 2024 11 21  2  326 01 etalon2   
H2  8903903 4146    20026 2024 11 20  0  0  0 2024 11 24 23 45  0   900 1 1  0 0 0 1
H9
10 0 60638  37800.00000  0  12818346.821 -15695205.232 -15403635.814
10 0 60638  38700.00000  0  12107604.677 -13767853.799 -17659596.123
10 0 60638  39600.00000  0  11484957.514 -11542698.054 -19570456.274
10 0 60638  40500.00000  0  10995940.819  -9068357.569 -21099012.038
10 0 60638  41400.00000  0  10677068.229  -6402629.327 -22215587.809
10 0 60638  42300.00000  0  10554211.736  -3610293.761 -22898608.769
10 0 60638  43200.00000  0  10641454.013   -760635.212 -23135008.634
10 0 60638  44100.00000  0  10940460.515   2075218.159 -22920466.200
10 0 60638  45000.00000  0  11440396.644   4827023.689 -22259467.647
10 0 60638  45900.00000  0  12118391.273   7428108.471 -21165195.131
10 0 60638  46800.00000  0  12940525.283   9817896.916 -19659245.658
10 0 60638  47700.00000  0  13863301.198  11944178.103 -17771187.485
10 0 60638  48600.00000  0  14835530.152  13765020.166 -15537964.271
10 0 60638  49500.00000  0  15800555.718  15250254.139 -13003159.907
10 0 60638  50400.00000  0  16698719.535  16382469.020 -10216139.364
10 0 60638  51300.00000  0  17469964.752  17157479.481  -7231083.001
10 0 60638  52200.00000  0  18056468.518  17584249.428  -4105933.383
10 0 60638  53100.00000  0  18405192.611  17684278.416   -901275.124
10 0 60638  54000.00000  0  18470246.414  17490478.750   2320830.890
10 0 60638  54900.00000  0  18214964.685  17045591.733   5498036.989
10 0 60638  55800.00000  0  17613613.204  16400211.571   8568899.864
10 0 60638  56700.00000  0  16652652.278  15610499.797  11474051.533
10 0 60638  57600.00000  0  15331506.236  14735685.345  14157329.007
10 0 60638  58500.00000  0  13662805.975  13835455.241  16566842.355
10 0 60638  59400.00000  0  11672094.386  12967343.539  18655962.166
10 0 60638  60300.00000  0   9397006.033  12184226.215  20384208.913
10 0 60638  61200.00000  0   6885952.673  11532026.389  21718028.325
10 0 60638  62100.00000  0   4196367.309  11047724.395  22631438.832
10 0 60638  63000.00000  0   1392577.151  10757755.348  23106539.118
10 0 60638  63900.00000  0  -1456609.767  10676861.778  23133865.984
10 0 60638  64800.00000  0  -4280506.731  10807449.715  22712595.038
10 0 60638  65700.00000  0  -7009233.664  11139476.791  21850579.157
10 0 60638  66600.00000  0  -9576376.734  11650878.993  20564222.303
10 0 60638  67500.00000  0 -11921512.838  12308520.340  18878189.022
10 0 60638  68400.00000  0 -13992494.304  13069628.426  16824952.904
10 0 60638  69300.00000  0 -15747398.958  13883657.287  14444190.379
10 0 60638  70200.00000  0 -17156063.055  14694501.032  11782029.427
10 0 60638  71100.00000  0 -18201131.236  15442966.527   8890165.955
10 0 60638  72000.00000  0 -18878578.541  16069400.179   5824863.815
10 0 60638  72900.00000  0 -19197680.709  16516357.397   2645857.423
10 0 60638  73800.00000  0 -19180432.299  16731200.752   -584821.438
10 0 60638  74700.00000  0 -18860437.264  16668513.552  -3804068.751
10 0 60638  75600.00000  0 -18281318.448  16292224.280  -6948959.767
10 0 60638  76500.00000  0 -17494713.559  15577349.444  -9958000.419
10 0 60638  77400.00000  0 -16557944.739  14511277.205 -12772351.773
10 0 60638  78300.00000  0 -15531461.971  13094535.585 -15337001.253
10 0 60638  79200.00000  0 -14476170.504  11341011.347 -17601855.618
10 0 60638  80100.00000  0 -13450758.614   9277608.345 -19522732.558
10 0 60638  81000.00000  0 -12509140.362   6943359.933 -21062230.358
10 0 60638  81900.00000  0 -11698122.911   4388033.353 -22190458.102
10 0 60638  82800.00000  0 -11055398.406   1670284.844 -22885612.228
10 0 60638  83700.00000  0 -10607944.858  -1144555.680 -23134388.879
10 0 60638  84600.00000  0 -10370902.846  -3986976.346 -22932225.187
10 0 60638  85500.00000  0 -10346974.096  -6785946.964 -22283366.321
99